0 DELTA 1 DEB *
1 10519U 77118C   13282.92044579  .00001138  00000-0  34091-3 0  2824
2 10519 029.0571 135.1468 0839347 053.7704 032.7769 13.23963359720771
0 DELTA 1 DEB *
1 10519U 77118C   13285.61883509  .00001086  00000-0  32429-3 0  2833
2 10519 029.0601 121.9076 0839307 075.1564 294.0239 13.23967197721131
0 DELTA 1 DEB *
1 10519U 77118C   13288.80828747  .00001744  00000-0  53371-3 0  2841
2 10519 029.0585 106.2303 0839285 100.3839 015.9511 13.23978805721559
0 DELTA 1 DEB *
1 10519U 77118C   13290.60902257  .00001861  00000-0  57025-3 0  2852
2 10519 029.0595 097.3860 0839222 114.6534 318.8452 13.23984310721792
0 DELTA 1 DEB *
1 10519U 77118C   13292.48811512  .00002004  00000-0  61477-3 0  2860
2 10519 029.0607 088.1564 0839145 129.5413 275.2626 13.23990517722044
0 DELTA 1 DEB *
1 10519U 77118C   13293.78970228  .00002286  00000-0  70414-3 0  2878
2 10519 029.0613 081.7641 0839120 139.8470 359.1220 13.23995442722219
0 DELTA 1 DEB *
1 10519U 77118C   13295.50985412  .00002826  00000-0  87574-3 0  2887
2 10519 029.0609 073.3198 0839115 153.4700 278.0482 13.24002626722448
